GLOBALSTAR M045         
1 25676U 99019A   24275.90606549 -.00000014  00000+0  70161-3 0  9996
2 25676  51.9986 321.4211 0000720  97.6359  73.3892 12.27045903161685
GLOBALSTAR M019         
1 25677U 99019B   24275.89501413 -.00000160  00000+0 -73011-3 0  9999
2 25677  51.9872  73.6371 0001706 132.6855  22.5429 12.13862924153968
GLOBALSTAR M044         
1 25678U 99019C   24275.72042654  .00000015  00000+0  13753-2 0  9992
2 25678  51.9999 353.1528 0005992 259.1042 269.6931 11.90240815140548
GLOBALSTAR M042         
1 25679U 99019D   24276.12323916 -.00000082  00000+0  94406-4 0  9992
2 25679  52.0017  59.4649 0003682 119.3580  51.8313 12.22069036153774
GLOBALSTAR M025         
1 25770U 99031A   24275.83315191 -.00000083  00000+0 -46952-3 0  9995
2 25770  51.9843  37.7628 0002128  83.2662  82.4263 11.22553759452697
GLOBALSTAR M049         
1 25771U 99031B   24276.11818242  .00000002  00000+0  23355-2 0  9993
2 25771  51.9881  58.8948 0002415 311.4169  48.6419 11.12109838 88715
GLOBALSTAR M047         
1 25772U 99031C   24276.46725013 -.00000054  00000+0  42766-3 0  9991
2 25772  51.9822  79.6965 0016403 176.9795 183.1112 11.31923549116690
GLOBALSTAR M052         
1 25773U 99031D   24275.87680793 -.00000052  00000+0  47121-3 0  9999
2 25773  51.9848 171.7557 0003194  91.5248 347.2840 11.15054353449698
